NORAD_CAT_ID,OBJECT_NAME,OBJECT_TYPE,EPOCH,MEAN_MOTION,ECCENTRICITY,INCLINATION,RA_OF_ASC_NODE,ARG_OF_PERICENTER,MEAN_ANOMALY,BSTAR,MEAN_MOTION_DOT,MEAN_MOTION_DDOT,TLE_LINE0,TLE_LINE1,TLE_LINE2,SEMIMAJOR_AXIS,PERIOD,APOGEE,PERIGEE,DECAYED
52995.0,STARLINK-4296,PAYLOAD,2022-11-27 06:39:50,15.08843918,0.000322,53.2179,74.0039,38.2491,321.8729,9.09e-05,1.158e-05,0.0,0 STARLINK-4296,1 52995U 22076K   22331.27767098  .00001158  00000-0  90900-4 0  9991,2 52995  53.2179  74.0039 0003220  38.2491 321.8729 15.08843918 22391,6917.868,95.437,541.961,537.506,0.0
52995.0,STARLINK-4296,PAYLOAD,2022-11-27 13:01:24,15.08825568,0.000285,53.2189,72.8106,31.6613,328.455,-2.9834e-05,-7.63e-06,0.0,0 STARLINK-4296,1 52995U 22076K   22331.54264582 -.00000763  00000-0 -29834-4 0  9992,2 52995  53.2189  72.8106 0002850  31.6613 328.4550 15.08825568 21962,6917.925,95.438,541.761,537.818,0.0
52995.0,STARLINK-4296,PAYLOAD,2022-11-27 16:12:10,15.08829604,0.0003136,53.2173,72.2165,36.7117,323.4089,-5.8155e-05,-1.214e-05,0.0,0 STARLINK-4296,1 52995U 22076K   22331.67512491 -.00001214  00000-0 -58155-4 0  9991,2 52995  53.2173  72.2165 0003136  36.7117 323.4089 15.08829604 22459,6917.9119999999975,95.438,541.947,537.6080000000002,0.0
52995.0,STARLINK-4296,PAYLOAD,2022-11-28 00:09:06,15.08837114,0.0003138,53.2184,70.7298,36.3884,323.7321,-5.1479e-05,-1.108e-05,0.0,0 STARLINK-4296,1 52995U 22076K   22332.00632089 -.00001108  00000-0 -51479-4 0  9999,2 52995  53.2184  70.7298 0003138  36.3884 323.7321 15.08837114 22503,6917.889,95.438,541.925,537.5830000000002,0.0
52995.0,STARLINK-4296,PAYLOAD,2022-11-28 16:02:56,15.08845365,0.0003085,53.2184,67.7558,35.5,324.6197,3.0003e-05,1.89e-06,0.0,0 STARLINK-4296,1 52995U 22076K   22332.66871212  .00000189  00000-0  30003-4 0  9990,2 52995  53.2184  67.7558 0003085  35.5000 324.6197 15.08845365 22609,6917.864000000001,95.437,541.863,537.595,0.0
52995.0,STARLINK-4296,PAYLOAD,2022-11-29 06:21:25,15.08834675,0.0003091,53.2178,65.0797,35.9788,324.1412,7.9019e-05,9.69e-06,0.0,0 STARLINK-4296,1 52995U 22076K   22333.26487679  .00000969  00000-0  79019-4 0  9993,2 52995  53.2178  65.0797 0003091  35.9788 324.1412 15.08834675 22698,6917.897,95.438,541.9,537.623,0.0
52995.0,STARLINK-4296,PAYLOAD,2022-11-29 12:42:57,15.08839647,0.0003127,53.2187,63.8904,36.4336,323.6868,0.00012101,1.638e-05,0.0,0 STARLINK-4296,1 52995U 22076K   22333.52983223  .00001638  00000-0  12101-3 0  9990,2 52995  53.2187  63.8904 0003127  36.4336 323.6868 15.08839647 22265,6917.880999999999,95.438,541.91,537.5830000000002,0.0
52995.0,STARLINK-4296,PAYLOAD,2022-11-30 06:12:11,15.08849109,0.0003157,53.2177,60.6196,36.6461,323.4747,9.4904e-05,1.222e-05,0.0,0 STARLINK-4296,1 52995U 22076K   22334.25846574  .00001222  00000-0  94904-4 0  9999,2 52995  53.2177  60.6196 0003157  36.6461 323.4747 15.08849109 22848,6917.853,95.437,541.9019999999998,537.534,0.0
52995.0,STARLINK-4296,PAYLOAD,2022-11-30 15:44:31,15.08836219,0.0003261,53.2172,58.83600000000001,34.7528,325.3677,-2.1159e-05,-6.26e-06,0.0,0 STARLINK-4296,1 52995U 22076K   22334.65592362 -.00000626  00000-0 -21159-4 0  9997,2 52995  53.2172  58.8360 0003261  34.7528 325.3677 15.08836219 22902,6917.892,95.438,542.013,537.501,0.0
52995.0,STARLINK-4296,PAYLOAD,2022-12-01 12:24:32,15.08841804,0.0003123999999999,53.2181,54.9704,33.8257,326.2934,-1.1184000000000003e-05,-4.67e-06,0.0,0 STARLINK-4296,1 52995U 22076K   22335.51704087 -.00000467  00000-0 -11184-4 0  9992,2 52995  53.2181  54.9704 0003124  33.8257 326.2934 15.08841804 22562,6917.875,95.437,541.901,537.5790000000002,0.0
52995.0,STARLINK-4296,PAYLOAD,2022-12-01 21:56:51,15.08843838,0.0003175,53.2181,53.1863,33.7695,326.3499,-2.2587e-05,-6.48e-06,0.0,0 STARLINK-4296,1 52995U 22076K   22335.91447955 -.00000648  00000-0 -22587-4 0  9994,2 52995  53.2181  53.1863 0003175  33.7695 326.3499 15.08843838 23095,6917.869000000002,95.437,541.93,537.5369999999998,0.0
52995.0,STARLINK-4296,PAYLOAD,2022-12-02 12:15:19,15.08836075,0.0003157,53.2178,50.5099,32.6373,327.4814,3.5236e-05,2.72e-06,0.0,0 STARLINK-4296,1 52995U 22076K   22336.51064508  .00000272  00000-0  35236-4 0  9996,2 52995  53.2178  50.5099 0003157  32.6373 327.4814 15.08836075 22710,6917.892,95.438,541.941,537.573,0.0
52995.0,STARLINK-4296,PAYLOAD,2022-12-02 21:47:39,15.08826446,0.0003156,53.2176,48.7261,32.2361,327.8824,-6.0513e-05,-1.251e-05,0.0,0 STARLINK-4296,1 52995U 22076K   22336.90809589 -.00001251  00000-0 -60513-4 0  9991,2 52995  53.2176  48.7261 0003156  32.2361 327.8824 15.08826446 23245,6917.922,95.438,541.97,537.604,0.0
52995.0,STARLINK-4296,PAYLOAD,2022-12-03 10:30:44,15.08834214,0.000307,53.2181,46.3473,28.5059,331.6101,3.434e-05,2.58e-06,0.0,0 STARLINK-4296,1 52995U 22076K   22337.43800978  .00000258  00000-0  34340-4 0  9996,2 52995  53.2181  46.3473 0003070  28.5059 331.6101 15.08834214 23329,6917.898,95.438,541.887,537.639,0.0
52995.0,STARLINK-4296,PAYLOAD,2022-12-03 13:41:30,15.08827199,0.0003205,53.2184,45.7529,31.3859,328.7324,-2.4324e-05,-6.76e-06,0.0,0 STARLINK-4296,1 52995U 22076K   22337.57049720 -.00000676  00000-0 -24324-4 0  9998,2 52995  53.2184  45.7529 0003205  31.3859 328.7324 15.08827199 22874,6917.92,95.438,542.002,537.567,0.0
52995.0,STARLINK-4296,PAYLOAD,2022-12-03 15:16:53,15.08830055,0.000311,53.2183,45.4551,30.03,330.087,5.2928e-06,-2.04e-06,0.0,0 STARLINK-4296,1 52995U 22076K   22337.63673478 -.00000204  00000-0  52928-5 0  9996,2 52995  53.2183  45.4551 0003110  30.0300 330.0870 15.08830055 22885,6917.911,95.438,541.927,537.624,0.0
52995.0,STARLINK-4296,PAYLOAD,2022-12-04 10:21:30,15.08840795,0.0003036,53.2179,41.8866,25.79300000000001,334.3213,9.2903e-05,1.19e-05,0.0,0 STARLINK-4296,1 52995U 22076K   22338.43160759  .00001190  00000-0  92903-4 0  9998,2 52995  53.2179  41.8866 0003036  25.7930 334.3213 15.08840795 23001,6917.878000000002,95.438,541.8430000000002,537.643,0.0
52995.0,STARLINK-4296,PAYLOAD,2022-12-04 11:56:53,15.08841955,0.0003032,53.2182,41.5893,25.2075,334.9064,0.00010179,1.332e-05,0.0,0 STARLINK-4296,1 52995U 22076K   22338.49784664  .00001332  00000-0  10179-3 0  9993,2 52995  53.2182  41.5893 0003032  25.2075 334.9064 15.08841955 23484,6917.874,95.437,541.837,537.6419999999998,0.0
52995.0,STARLINK-4296,PAYLOAD,2022-12-05 10:12:17,15.08858499,0.0003549,53.2183,37.4261,37.2469,322.8769,2.173e-05,5.7e-07,0.0,0 STARLINK-4296,1 52995U 22076K   22339.42519806  .00000057  00000-0  21730-4 0  9990,2 52995  53.2183  37.4261 0003549  37.2469 322.8769 15.08858499 23626,6917.824000000001,95.436,542.144,537.234,0.0
52995.0,STARLINK-4296,PAYLOAD,2022-12-05 21:19:59,15.08842958,0.0003195,53.2174,35.3454,30.233,329.8846,0.00012496,1.701e-05,0.0,0 STARLINK-4296,1 52995U 22076K   22339.88888389  .00001701  00000-0  12496-3 0  9990,2 52995  53.2174  35.3454 0003195  30.2330 329.8846 15.08842958 23697,6917.871,95.437,541.947,537.526,0.0
52995.0,STARLINK-4296,PAYLOAD,2022-12-06 10:03:04,15.08852156,0.0003372,53.2173,32.9668,33.854,326.2667,4.691100000000001e-05,4.58e-06,0.0,0 STARLINK-4296,1 52995U 22076K   22340.41879839  .00000458  00000-0  46911-4 0  9999,2 52995  53.2173  32.9668 0003372  33.8540 326.2667 15.08852156 23306,6917.843000000003,95.437,542.0409999999998,537.376,0.0
52995.0,STARLINK-4296,PAYLOAD,2022-12-06 14:49:14,15.08838323,0.0003068,53.218,32.0739,24.9479,335.1661,-4.8973e-05,-1.068e-05,0.0,0 STARLINK-4296,1 52995U 22076K   22340.61752851 -.00001068  00000-0 -48973-4 0  9995,2 52995  53.2180  32.0739 0003068  24.9479 335.1661 15.08838323 23806,6917.886,95.438,541.873,537.628,0.0
52995.0,STARLINK-4296,PAYLOAD,2022-12-07 14:40:01,15.08840411,0.0003028,53.2186,27.6121,28.9259,331.1901,-4.5751e-05,-1.017e-05,0.0,0 STARLINK-4296,1 52995U 22076K   22341.61112667 -.00001017  00000-0 -45751-4 0  9996,2 52995  53.2186  27.6121 0003028  28.9259 331.1901 15.08840411 23481,6917.879,95.438,541.839,537.649,0.0
52995.0,STARLINK-4296,PAYLOAD,2022-12-08 09:44:38,15.0884763,0.0003151,53.2186,24.0451,27.6423,332.4736,9.412e-05,1.21e-05,0.0,0 STARLINK-4296,1 52995U 22076K   22342.40599705  .00001210  00000-0  94120-4 0  9993,2 52995  53.2186  24.0451 0003151  27.6423 332.4736 15.08847630 23608,6917.857,95.437,541.9019999999998,537.5419999999998,0.0
52995.0,STARLINK-4296,PAYLOAD,2022-12-09 19:07:44,15.08841907,0.000227,53.2187,17.8056,14.2672,345.8384,8.5088e-05,1.066e-05,0.0,0 STARLINK-4296,1 52995U 22076K   22343.79704111  .00001066  00000-0  85088-4 0  9997,2 52995  53.2187  17.8056 0002270  14.2672 345.8384 15.08841907 24282,6917.875,95.437,541.31,538.169,0.0
52995.0,STARLINK-4296,PAYLOAD,2022-12-10 07:50:49,15.08837735,0.0002783,53.2194,15.4245,28.062,332.0522,1.1702e-05,-1.02e-06,0.0,0 STARLINK-4296,1 52995U 22076K   22344.32696741 -.00000102  00000-0  11702-4 0  9999,2 52995  53.2194  15.4245 0002783  28.0620 332.0522 15.08837735 24364,6917.887,95.438,541.678,537.827,0.0
52995.0,STARLINK-4296,PAYLOAD,2022-12-11 10:52:23,15.0883335,0.0003148,53.2183,10.3666,26.6508,333.4645,8.579e-05,1.077e-05,0.0,0 STARLINK-4296,1 52995U 22076K   22345.45305419  .00001077  00000-0  85790-4 0  9992,2 52995  53.2183  10.3666 0003148  26.6508 333.4645 15.08833350 24537,6917.901,95.438,541.943,537.5880000000002,0.0
52995.0,STARLINK-4296,PAYLOAD,2022-12-11 14:03:10,15.0883122,0.000312,53.2182,9.7718,26.0774,334.0375,7.3905e-05,8.88e-06,0.0,0 STARLINK-4296,1 52995U 22076K   22345.58553614  .00000888  00000-0  73905-4 0  9992,2 52995  53.2182   9.7718 0003120  26.0774 334.0375 15.08831220 24086,6917.906999999997,95.438,541.931,537.614,0.0
52995.0,STARLINK-4296,PAYLOAD,2022-12-11 20:24:42,15.08836069,0.0003049,53.2182,8.5825,26.3479,333.7667,0.00010495,1.382e-05,0.0,0 STARLINK-4296,1 52995U 22076K   22345.85049386  .00001382  00000-0  10495-3 0  9992,2 52995  53.2182   8.5825 0003049  26.3479 333.7667 15.08836069 24128,6917.892,95.438,541.867,537.648,0.0
